[{"OBJECT_NAME":"STARLINK-6041","OBJECT_ID":"2023-064AG","EPOCH":"2026-03-09T12:25:52.700448","MEAN_MOTION":14.98304487,"ECCENTRICITY":0.00030426,"INCLINATION":69.9997,"RA_OF_ASC_NODE":124.8907,"ARG_OF_PERICENTER":271.043,"MEAN_ANOMALY":89.038,"EPHEMERIS_TYPE":0,"CLASSIFICATION_TYPE":"U","NORAD_CAT_ID":56478,"ELEMENT_SET_NO":999,"REV_AT_EPOCH":15571,"BSTAR":0.00041651172,"MEAN_MOTION_DOT":4.877e-5,"MEAN_MOTION_DDOT":0},{"OBJECT_NAME":"LEMUR-2-LIA-MARTIN","OBJECT_ID":"2025-052AQ","EPOCH":"2026-03-09T16:52:54.660288","MEAN_MOTION":14.96805944,"ECCENTRICITY":0.00038171,"INCLINATION":97.6996,"RA_OF_ASC_NODE":322.6614,"ARG_OF_PERICENTER":139.7155,"MEAN_ANOMALY":220.435,"EPHEMERIS_TYPE":0,"CLASSIFICATION_TYPE":"U","NORAD_CAT_ID":63248,"ELEMENT_SET_NO":999,"REV_AT_EPOCH":5379,"BSTAR":0.0006082839,"MEAN_MOTION_DOT":6.911e-5,"MEAN_MOTION_DDOT":0}]
